[
    {
        "Altitude(m)": 612502.1988240582,
        "Argument of Periapsis(deg)": 0.0,
        "Eccentricity": 0.0,
        "Inclination(deg)": 60.0,
        "Latitude(deg)": -28.135986786135177,
        "Longitude(deg)": 147.14820402277462,
        "Mean Anomaly(deg)": -32.72730000000006,
        "RAAN(deg)": 265.0,
        "Satellite Name": "Test1 1186",
        "Satellite Number": 1186,
        "Semi-Major Axis(m)": 6980739.136638005,
        "Time(s)": 0
    },
    {
        "Altitude(m)": 612308.6468224964,
        "Argument of Periapsis(deg)": 0.00010418945913296404,
        "Eccentricity": 0.0,
        "Inclination(deg)": 60.0,
        "Latitude(deg)": -27.623042620447514,
        "Longitude(deg)": 147.50167918844585,
        "Mean Anomaly(deg)": -32.10719385453821,
        "RAAN(deg)": 264.99957995086027,
        "Satellite Name": "Test1 1186",
        "Satellite Number": 1186,
        "Semi-Major Axis(m)": 6980739.136638005,
        "Time(s)": 10
    }
]